NORAD_CAT_ID,OBJECT_NAME,OBJECT_TYPE,EPOCH,MEAN_MOTION,ECCENTRICITY,INCLINATION,RA_OF_ASC_NODE,ARG_OF_PERICENTER,MEAN_ANOMALY,BSTAR,MEAN_MOTION_DOT,MEAN_MOTION_DDOT,TLE_LINE0,TLE_LINE1,TLE_LINE2,SEMIMAJOR_AXIS,PERIOD,APOGEE,PERIGEE,DECAYED
53866.0,STARLINK-4762,PAYLOAD,2023-08-24 00:46:15,15.08844411,0.0001294,53.2161,113.2355,88.6013,271.5128,7.9488e-05,9.78e-06,0.0,0 STARLINK-4762,1 53866U 22114BA  23236.03212606  .00000978  00000-0  79488-4 0  9998,2 53866  53.2161 113.2355 0001294  88.6013 271.5128 15.08844411 53190,6917.867,95.437,540.627,538.837,0.0
53866.0,STARLINK-4762,PAYLOAD,2023-08-25 00:37:03,15.08840588,0.0001247,53.2162,108.7739,89.5685,270.545,3.4532e-05,2.62e-06,0.0,0 STARLINK-4762,1 53866U 22114BA  23237.02573301  .00000262  00000-0  34532-4 0  9997,2 53866  53.2162 108.7739 0001247  89.5685 270.5450 15.08840588 52804,6917.879,95.438,540.606,538.881,0.0
53866.0,STARLINK-4762,PAYLOAD,2023-08-25 19:41:41,15.08839229,0.0001231,53.2162,105.2056,89.028,271.0853,1.4299e-05,-6e-07,0.0,0 STARLINK-4762,1 53866U 22114BA  23237.82061471 -.00000060  00000-0  14299-4 0  9990,2 53866  53.2162 105.2056 0001231  89.0280 271.0853 15.08839229 53463,6917.883,95.438,540.599,538.896,0.0
53866.0,STARLINK-4762,PAYLOAD,2023-08-25 22:52:27,15.08843369,0.0001316,53.2164,104.6097,87.655,272.4592,4.172e-05,3.76e-06,0.0,0 STARLINK-4762,1 53866U 22114BA  23237.95309132  .00000376  00000-0  41720-4 0  9991,2 53866  53.2164 104.6097 0001316  87.6550 272.4592 15.08843369 53488,6917.87,95.437,540.645,538.825,0.0
53866.0,STARLINK-4762,PAYLOAD,2023-08-26 17:57:04,15.08836927,0.0001371,53.2162,101.0418,83.4625,276.6523,9.5176e-05,1.227e-05,0.0,0 STARLINK-4762,1 53866U 22114BA  23238.74797415  .00001227  00000-0  95176-4 0  9994,2 53866  53.2162 101.0418 0001371  83.4625 276.6523 15.08836927 53068,6917.89,95.438,540.703,538.806,0.0
53866.0,STARLINK-4762,PAYLOAD,2023-08-26 21:07:51,15.08839852,0.0001322,53.2158,100.4479,85.349,274.7653,0.00011994,1.621e-05,0.0,0 STARLINK-4762,1 53866U 22114BA  23238.88045185  .00001621  00000-0  11994-3 0  9992,2 53866  53.2158 100.4479 0001322  85.3490 274.7653 15.08839852 53625,6917.881,95.438,540.66,538.831,0.0
53866.0,STARLINK-4762,PAYLOAD,2023-08-27 20:58:37,15.08846181,0.0001282,53.2157,95.9873,89.0958,271.0181,8.8758e-05,1.125e-05,0.0,0 STARLINK-4762,1 53866U 22114BA  23239.87404827  .00001125  00000-0  88758-4 0  9996,2 53866  53.2157  95.9873 0001282  89.0958 271.0181 15.08846181 53770,6917.861,95.437,540.613,538.84,0.0
53866.0,STARLINK-4762,PAYLOAD,2023-08-28 17:38:39,15.08838032,0.0001227,53.2154,92.1216,104.9646,255.1482,-4.7181e-05,-1.039e-05,0.0,0 STARLINK-4762,1 53866U 22114BA  23240.73517625 -.00001039  00000-0 -47181-4 0  9995,2 53866  53.2154  92.1216 0001227 104.9646 255.1482 15.08838032 53365,6917.886,95.438,540.6,538.903,0.0
53866.0,STARLINK-4762,PAYLOAD,2023-08-28 20:49:25,15.08836189,0.0001244,53.2153,91.5266,110.3005,249.8121,5.3618e-06,-2.03e-06,0.0,0 STARLINK-4762,1 53866U 22114BA  23240.86765532 -.00000203  00000-0  53618-5 0  9995,2 53866  53.2153  91.5266 0001244 110.3005 249.8121 15.08836189 53924,6917.892,95.438,540.618,538.896,0.0
53866.0,STARLINK-4762,PAYLOAD,2023-08-29 17:29:25,15.08844277,0.0001438,53.2164,87.6581,115.0706,245.0436,8.5684e-06,-1.52e-06,0.0,0 STARLINK-4762,1 53866U 22114BA  23241.72877060 -.00000152  00000-0  85684-5 0  9992,2 53866  53.2164  87.6581 0001438 115.0706 245.0436 15.08844277 53516,6917.867,95.437,540.727,538.738,0.0
53866.0,STARLINK-4762,PAYLOAD,2023-08-29 20:40:11,15.08867661,0.000195,53.2162,87.064,118.9296,241.1892,-0.00025123,-4.287e-05,0.0,0 STARLINK-4762,1 53866U 22114BA  23241.86124232 -.00004287  00000-0 -25123-3 0  9997,2 53866  53.2162  87.0640 0001950 118.9296 241.1892 15.08867661 54076,6917.796,95.436,541.01,538.312,0.0
53866.0,STARLINK-4762,PAYLOAD,2023-08-30 15:44:50,15.08834146,0.0001448,53.2161,83.4964,102.4599,257.6555,8.5009e-05,1.065e-05,0.0,0 STARLINK-4762,1 53866U 22114BA  23242.65613577  .00001065  00000-0  85009-4 0  9999,2 53866  53.2161  83.4964 0001448 102.4599 257.6555 15.08834146 53653,6917.898,95.438,540.765,538.762,0.0
53866.0,STARLINK-4762,PAYLOAD,2023-08-30 20:30:55,15.08885832,0.0002051,53.2167,82.6046,103.3121,256.81,0.00043727,6.687e-05,0.0,0 STARLINK-4762,1 53866U 22114BA  23242.85481322  .00006687  00000-0  43727-3 0  9997,2 53866  53.2167  82.6046 0002051 103.3121 256.8100 15.08885832 54222,6917.74,95.435,541.024,538.186,0.0
53866.0,STARLINK-4762,PAYLOAD,2023-08-31 09:14:04,15.08841507,0.0001273,53.2166,80.2266,87.4088,272.705,-0.0001323,-2.393e-05,0.0,0 STARLINK-4762,1 53866U 22114BA  23243.38477646 -.00002393  00000-0 -13230-3 0  9998,2 53866  53.2166  80.2266 0001273  87.4088 272.7050 15.08841507 53768,6917.876,95.437,540.621,538.86,0.0
53866.0,STARLINK-4762,PAYLOAD,2023-08-31 15:35:37,15.08823068,0.0001489,53.216,79.0375,88.649,271.4673,0.00010538,1.389e-05,0.0,0 STARLINK-4762,1 53866U 22114BA  23243.64974318  .00001389  00000-0  10538-3 0  9995,2 53866  53.2160  79.0375 0001489  88.6490 271.4673 15.08823068 53802,6917.932,95.439,540.827,538.767,0.0
53866.0,STARLINK-4762,PAYLOAD,2023-08-31 21:57:09,15.08838812,0.0001471,53.216,77.8477,87.2459,272.8701,-4.9535e-06,-3.67e-06,0.0,0 STARLINK-4762,1 53866U 22114BA  23243.91469863 -.00000367  00000-0 -49535-5 0  9997,2 53866  53.2160  77.8477 0001471  87.2459 272.8701 15.08838812 54386,6917.884,95.438,540.767,538.731,0.0
53866.0,STARLINK-4762,PAYLOAD,2023-09-01 05:54:05,15.0883811,0.0001266,53.2162,76.3619,101.3244,258.789,1.4792e-06,-2.64e-06,0.0,0 STARLINK-4762,1 53866U 22114BA  23244.24589850 -.00000264  00000-0  14792-5 0  9995,2 53866  53.2162  76.3619 0001266 101.3244 258.7890 15.08838110 54431,6917.886,95.438,540.627,538.875,0.0
53866.0,STARLINK-4762,PAYLOAD,2023-09-01 15:26:21,15.08886861,0.0001408,53.2148,74.5774,97.4747,262.6405,0.00014278,1.988e-05,0.0,0 STARLINK-4762,1 53866U 22114BA  23244.64330527  .00001988  00000-0  14278-3 0  9994,2 53866  53.2148  74.5774 0001408  97.4747 262.6405 15.08886861 53956,6917.737,95.435,540.576,538.628,0.0
53866.0,STARLINK-4762,PAYLOAD,2023-09-01 21:47:57,15.08821489,0.0001713,53.2149,73.3883,90.7257,269.3931,0.00021992,3.212e-05,0.0,0 STARLINK-4762,1 53866U 22114BA  23244.90830563  .00003212  00000-0  21992-3 0  9991,2 53866  53.2149  73.3883 0001713  90.7257 269.3931 15.08821489 53993,6917.937,95.439,540.987,538.617,0.0
53866.0,STARLINK-4762,PAYLOAD,2023-09-02 12:06:25,15.08835856,0.0001396,53.2162,70.7104,89.6724,270.4428,0.00012007,1.623e-05,0.0,0 STARLINK-4762,1 53866U 22114BA  23245.50445945  .00001623  00000-0  12007-3 0  9995,2 53866  53.2162  70.7104 0001396  89.6724 270.4428 15.08835856 54626,6917.893,95.438,540.724,538.792,0.0
53866.0,STARLINK-4762,PAYLOAD,2023-09-02 18:27:57,15.08835945,0.0001351,53.2164,69.5205,88.9213,271.1934,0.00012577,1.714e-05,0.0,0 STARLINK-4762,1 53866U 22114BA  23245.76942088  .00001714  00000-0  12577-3 0  9996,2 53866  53.2164  69.5205 0001351  88.9213 271.1934 15.08835945 54126,6917.893,95.438,540.692,538.823,0.0
53866.0,STARLINK-4762,PAYLOAD,2023-09-02 20:03:22,15.087897,0.0001543,53.2171,69.2226,88.4138,271.7031,0.000932,0.00014556,0.0,0 STARLINK-4762,1 53866U 22114BA  23245.83567972  .00014556  00000-0  93200-3 0  9999,2 53866  53.2171  69.2226 0001543  88.4138 271.7031 15.08789700 54130,6918.034,95.441,540.967,538.832,0.0
53866.0,STARLINK-4762,PAYLOAD,2023-09-03 05:35:39,15.08842031,0.0001245,53.2168,67.4393,86.5109,273.6026,0.00011472,1.538e-05,0.0,0 STARLINK-4762,1 53866U 22114BA  23246.23309789  .00001538  00000-0  11472-3 0  9991,2 53866  53.2168  67.4393 0001245  86.5109 273.6026 15.08842031 54195,6917.874,95.437,540.6,538.878,0.0
53866.0,STARLINK-4762,PAYLOAD,2023-09-04 11:47:59,15.08833681,0.0001416,53.216,61.7926,72.1194,287.9953,8.8911e-05,1.127e-05,0.0,0 STARLINK-4762,1 53866U 22114BA  23247.49166302  .00001127  00000-0  88911-4 0  9999,2 53866  53.2160  61.7926 0001416  72.1194 287.9953 15.08833681 54920,6917.9,95.438,540.744,538.785,0.0
53866.0,STARLINK-4762,PAYLOAD,2023-09-04 14:58:46,15.08831868,0.0001394,53.216,61.1966,76.1641,283.9507,4.4721e-05,4.24e-06,0.0,0 STARLINK-4762,1 53866U 22114BA  23247.62414586  .00000424  00000-0  44721-4 0  9994,2 53866  53.2160  61.1966 0001394  76.1641 283.9507 15.08831868 54403,6917.905,95.438,540.735,538.806,0.0
53866.0,STARLINK-4762,PAYLOAD,2023-09-04 18:09:32,15.0883637,0.0001356,53.2165,60.6008,77.4898,282.6246,2.2504e-05,7e-07,0.0,0 STARLINK-4762,1 53866U 22114BA  23247.75662381  .00000070  00000-0  22504-4 0  9998,2 53866  53.2165  60.6008 0001356  77.4898 282.6246 15.08836370 54965,6917.891,95.438,540.695,538.818,0.0
53866.0,STARLINK-4762,PAYLOAD,2023-09-06 11:29:33,15.08839358,0.0001245,53.2171,52.868,86.4738,273.6397,7.4943e-05,9.05e-06,0.0,0 STARLINK-4762,1 53866U 22114BA  23249.47886145  .00000905  00000-0  74943-4 0  9996,2 53866  53.2171  52.8680 0001245  86.4738 273.6397 15.08839358 54686,6917.882,95.438,540.609,538.886,0.0
53866.0,STARLINK-4762,PAYLOAD,2023-09-06 13:04:56,15.08840462,0.0001256,53.2172,52.5707,88.4733,271.6403,8.397e-05,1.049e-05,0.0,0 STARLINK-4762,1 53866U 22114BA  23249.54510050  .00001049  00000-0  83970-4 0  9993,2 53866  53.2172  52.5707 0001256  88.4733 271.6403 15.08840462 55239,6917.879,95.438,540.613,538.875,0.0
53866.0,STARLINK-4762,PAYLOAD,2023-09-06 21:01:51,15.08846496,0.0001252,53.2173,51.0835,89.1543,270.9593,0.00013059,1.791e-05,0.0,0 STARLINK-4762,1 53866U 22114BA  23249.87629552  .00001791  00000-0  13059-3 0  9991,2 53866  53.2173  51.0835 0001252  89.1543 270.9593 15.08846496 55289,6917.861,95.437,540.592,538.859,0.0
53866.0,STARLINK-4762,PAYLOAD,2023-09-06 22:37:14,15.08849524,0.0001247,53.2173,50.7861,88.3763,271.7372,0.00015603,2.197e-05,0.0,0 STARLINK-4762,1 53866U 22114BA  23249.94253294  .00002197  00000-0  15603-3 0  9993,2 53866  53.2173  50.7861 0001247  88.3763 271.7372 15.08849524 54753,6917.851,95.437,540.579,538.854,0.0
